{
  "type": "FeatureCollection",
  "features": [
    {
      "type": "Feature",
      "properties": {
        "norad_id": 41859,
        "name": "GSAT0207 (GALILEO 15)",
        "group": "gnss",
        "lat": -54.509317783356344,
        "lon": 30.929914588767637,
        "alt_km": 23223.718244081232,
        "timestamp": "2025-12-03T20:47:58.465311+00:00",
        "meta_object_name": "GSAT0207 (GALILEO 15)",
        "meta_object_id": "2016-069A",
        "meta_epoch": "2025-12-02T19:50:13.202016",
        "meta_mean_motion": 1.70474209,
        "meta_eccentricity": 0.0002114,
        "meta_inclination": 55.3769,
        "meta_ra_of_asc_node": 106.5249,
        "meta_arg_of_pericenter": 324.8964,
        "meta_mean_anomaly": 35.0488,
        "meta_ephemeris_type": 0,
        "meta_classification_type": "U",
        "meta_norad_cat_id": 41859,
        "meta_element_set_no": 999,
        "meta_rev_at_epoch": 5605,
        "meta_bstar": 0,
        "meta_mean_motion_dot": 2.6e-07,
        "meta_mean_motion_ddot": 0,
        "tle_line1": "1 41859U 16069A   25336.82654169  .00000026  00000+0  00000+0 0  9995",
        "tle_line2": "2 41859  55.3769 106.5249 0002114 324.8964  35.0488  1.70474209 56053"
      },
      "geometry": {
        "type": "Point",
        "coordinates": [
          30.929914588767637,
          -54.509317783356344
        ]
      }
    },
    {
      "type": "Feature",
      "properties": {
        "norad_id": 41860,
        "name": "GSAT0212 (GALILEO 16)",
        "group": "gnss",
        "lat": 6.699591763199692,
        "lon": 111.12374963234903,
        "alt_km": 23215.553254591774,
        "timestamp": "2025-12-03T20:47:58.465323+00:00",
        "meta_object_name": "GSAT0212 (GALILEO 16)",
        "meta_object_id": "2016-069B",
        "meta_epoch": "2025-12-02T16:19:30.905184",
        "meta_mean_motion": 1.70474418,
        "meta_eccentricity": 0.00022458,
        "meta_inclination": 55.3738,
        "meta_ra_of_asc_node": 106.5243,
        "meta_arg_of_pericenter": 34.2432,
        "meta_mean_anomaly": 325.7313,
        "meta_ephemeris_type": 0,
        "meta_classification_type": "U",
        "meta_norad_cat_id": 41860,
        "meta_element_set_no": 999,
        "meta_rev_at_epoch": 5630,
        "meta_bstar": 0,
        "meta_mean_motion_dot": 2.7e-07,
        "meta_mean_motion_ddot": 0,
        "tle_line1": "1 41860U 16069B   25336.68021881  .00000027  00000+0  00000+0 0  9991",
        "tle_line2": "2 41860  55.3738 106.5243 0002245  34.2432 325.7313  1.70474418 56308"
      },
      "geometry": {
        "type": "Point",
        "coordinates": [
          111.12374963234903,
          6.699591763199692
        ]
      }
    },
    {
      "type": "Feature",
      "properties": {
        "norad_id": 41861,
        "name": "GSAT0213 (GALILEO 17)",
        "group": "gnss",
        "lat": 30.015287371157054,
        "lon": -97.03116037143515,
        "alt_km": 23223.224842309468,
        "timestamp": "2025-12-03T20:47:58.465334+00:00",
        "meta_object_name": "GSAT0213 (GALILEO 17)",
        "meta_object_id": "2016-069C",
        "meta_epoch": "2025-12-01T20:59:28.954752",
        "meta_mean_motion": 1.70474717,
        "meta_eccentricity": 0.00020626,
        "meta_inclination": 55.3756,
        "meta_ra_of_asc_node": 106.5542,
        "meta_arg_of_pericenter": 284.0381,
        "meta_mean_anomaly": 75.9044,
        "meta_ephemeris_type": 0,
        "meta_classification_type": "U",
        "meta_norad_cat_id": 41861,
        "meta_element_set_no": 999,
        "meta_rev_at_epoch": 5615,
        "meta_bstar": 0,
        "meta_mean_motion_dot": 3.5e-07,
        "meta_mean_motion_ddot": 0,
        "tle_line1": "1 41861U 16069C   25335.87464068  .00000035  00000+0  00000+0 0  9999",
        "tle_line2": "2 41861  55.3756 106.5542 0002062 284.0381  75.9044  1.70474717 56156"
      },
      "geometry": {
        "type": "Point",
        "coordinates": [
          -97.03116037143515,
          30.015287371157054
        ]
      }
    },
    {
      "type": "Feature",
      "properties": {
        "norad_id": 41862,
        "name": "GSAT0214 (GALILEO 18)",
        "group": "gnss",
        "lat": 41.062398411283226,
        "lon": 143.45573748376071,
        "alt_km": 23218.88163929705,
        "timestamp": "2025-12-03T20:47:58.465345+00:00",
        "meta_object_name": "GSAT0214 (GALILEO 18)",
        "meta_object_id": "2016-069D",
        "meta_epoch": "2025-12-02T14:34:22.700352",
        "meta_mean_motion": 1.70474512,
        "meta_eccentricity": 0.0001109,
        "meta_inclination": 55.3745,
        "meta_ra_of_asc_node": 106.5268,
        "meta_arg_of_pericenter": 291.2976,
        "meta_mean_anomaly": 68.6511,
        "meta_ephemeris_type": 0,
        "meta_classification_type": "U",
        "meta_norad_cat_id": 41862,
        "meta_element_set_no": 999,
        "meta_rev_at_epoch": 5629,
        "meta_bstar": 0,
        "meta_mean_motion_dot": 2.8e-07,
        "meta_mean_motion_ddot": 0,
        "tle_line1": "1 41862U 16069D   25336.60720718  .00000028  00000+0  00000+0 0  9991",
        "tle_line2": "2 41862  55.3745 106.5268 0001109 291.2976  68.6511  1.70474512 56297"
      },
      "geometry": {
        "type": "Point",
        "coordinates": [
          143.45573748376071,
          41.062398411283226
        ]
      }
    },
    {
      "type": "Feature",
      "properties": {
        "norad_id": 42709,
        "name": "SES-15 (WAAS/PRN 133)",
        "group": "gnss",
        "lat": -0.04218042269898748,
        "lon": -104.2775479561711,
        "alt_km": 35785.422491945326,
        "timestamp": "2025-12-03T20:47:58.465357+00:00",
        "meta_object_name": "SES-15 (WAAS/PRN 133)",
        "meta_object_id": "2017-026A",
        "meta_epoch": "2025-12-02T12:16:38.557632",
        "meta_mean_motion": 1.00268611,
        "meta_eccentricity": 3.415e-05,
        "meta_inclination": 0.02,
        "meta_ra_of_asc_node": 343.4979,
        "meta_arg_of_pericenter": 269.9972,
        "meta_mean_anomaly": 233.0968,
        "meta_ephemeris_type": 0,
        "meta_classification_type": "U",
        "meta_norad_cat_id": 42709,
        "meta_element_set_no": 999,
        "meta_rev_at_epoch": 546,
        "meta_bstar": 0,
        "meta_mean_motion_dot": 8.1e-07,
        "meta_mean_motion_ddot": 0,
        "tle_line1": "1 42709U 17026A   25336.51155738  .00000081  00000+0  00000+0 0  9999",
        "tle_line2": "2 42709   0.0200 343.4979 0000341 269.9972 233.0968  1.00268611  5468"
      },
      "geometry": {
        "type": "Point",
        "coordinates": [
          -104.2775479561711,
          -0.04218042269898748
        ]
      }
    },
    {
      "type": "Feature",
      "properties": {
        "norad_id": 42738,
        "name": "QZS-2 (QZSS/PRN 194)",
        "group": "gnss",
        "lat": -38.72030214775822,
        "lon": 171.61046126613815,
        "alt_km": 32665.32059886456,
        "timestamp": "2025-12-03T20:47:58.465372+00:00",
        "meta_object_name": "QZS-2 (QZSS/PRN 194)",
        "meta_object_id": "2017-028A",
        "meta_epoch": "2025-12-02T14:25:21.359424",
        "meta_mean_motion": 1.0028572,
        "meta_eccentricity": 0.075922,
        "meta_inclination": 39.7306,
        "meta_ra_of_asc_node": 246.0318,
        "meta_arg_of_pericenter": 269.3692,
        "meta_mean_anomaly": 274.0368,
        "meta_ephemeris_type": 0,
        "meta_classification_type": "U",
        "meta_norad_cat_id": 42738,
        "meta_element_set_no": 999,
        "meta_rev_at_epoch": 565,
        "meta_bstar": 0,
        "meta_mean_motion_dot": -1.54e-06,
        "meta_mean_motion_ddot": 0,
        "tle_line1": "1 42738U 17028A   25336.60094166 -.00000154  00000+0  00000+0 0  9992",
        "tle_line2": "2 42738  39.7306 246.0318 0759220 269.3692 274.0368  1.00285720  5651"
      },
      "geometry": {
        "type": "Point",
        "coordinates": [
          171.61046126613815,
          -38.72030214775822
        ]
      }
    },
    {
      "type": "Feature",
      "properties": {
        "norad_id": 42917,
        "name": "QZS-3 (QZSS/PRN 199)",
        "group": "gnss",
        "lat": -0.06981811086000728,
        "lon": 151.8740779475122,
        "alt_km": 35787.06403378102,
        "timestamp": "2025-12-03T20:47:58.465387+00:00",
        "meta_object_name": "QZS-3 (QZSS/PRN 199)",
        "meta_object_id": "2017-048A",
        "meta_epoch": "2025-12-03T10:56:06.928800",
        "meta_mean_motion": 1.00275995,
        "meta_eccentricity": 0.0002151,
        "meta_inclination": 0.0735,
        "meta_ra_of_asc_node": 222.2529,
        "meta_arg_of_pericenter": 32.9397,
        "meta_mean_anomaly": 108.3537,
        "meta_ephemeris_type": 0,
        "meta_classification_type": "U",
        "meta_norad_cat_id": 42917,
        "meta_element_set_no": 999,
        "meta_rev_at_epoch": 3029,
        "meta_bstar": 0,
        "meta_mean_motion_dot": -3.29e-06,
        "meta_mean_motion_ddot": 0,
        "tle_line1": "1 42917U 17048A   25337.45563575 -.00000329  00000+0  00000+0 0  9996",
        "tle_line2": "2 42917   0.0735 222.2529 0002151  32.9397 108.3537  1.00275995 30295"
      },
      "geometry": {
        "type": "Point",
        "coordinates": [
          151.8740779475122,
          -0.06981811086000728
        ]
      }
    }
  ]
}